NORAD_CAT_ID,OBJECT_NAME,OBJECT_TYPE,EPOCH,MEAN_MOTION,ECCENTRICITY,INCLINATION,RA_OF_ASC_NODE,ARG_OF_PERICENTER,MEAN_ANOMALY,BSTAR,MEAN_MOTION_DOT,MEAN_MOTION_DDOT,TLE_LINE0,TLE_LINE1,TLE_LINE2,SEMIMAJOR_AXIS,PERIOD,APOGEE,PERIGEE,DECAYED
51721.0,STARLINK-3524,PAYLOAD,2024-01-02 20:40:23,15.0884131,0.0001484,53.2181,306.2348,99.5862,260.5298,6.1108e-05,6.85e-06,0.0,0 STARLINK-3524,1 51721U 22016H   24002.86138373  .00000685  00000-0  61108-4 0  9993,2 51721  53.2181 306.2348 0001484  99.5862 260.5298 15.08841310103131,6917.876,95.437,540.768,538.715,0.0
51721.0,STARLINK-3524,PAYLOAD,2024-01-03 03:01:56,15.08841752,0.0001394,53.218,305.0451,94.7927,265.3224,6.6453e-05,7.7e-06,0.0,0 STARLINK-3524,1 51721U 22016H   24003.12634315  .00000770  00000-0  66453-4 0  9993,2 51721  53.2180 305.0451 0001394  94.7927 265.3224 15.08841752104291,6917.875,95.437,540.704,538.776,0.0
51721.0,STARLINK-3524,PAYLOAD,2024-01-04 02:52:43,15.08842513,0.0001446,53.2182,300.5867,100.9816,259.1339,-6.2064e-05,-1.276e-05,0.0,0 STARLINK-3524,1 51721U 22016H   24004.11994687 -.00001276  00000-0 -62064-4 0  9992,2 51721  53.2182 300.5867 0001446 100.9816 259.1339 15.08842513104440,6917.873,95.437,540.738,538.737,0.0
51721.0,STARLINK-3524,PAYLOAD,2024-01-04 18:46:34,15.08842925,0.0001675,53.2183,297.6122,107.6498,252.4677,-5.9264e-05,-1.231e-05,0.0,0 STARLINK-3524,1 51721U 22016H   24004.78234827 -.00001231  00000-0 -59264-4 0  9997,2 51721  53.2183 297.6122 0001675 107.6498 252.4677 15.08842925103420,6917.871,95.437,540.895,538.578,0.0
51721.0,STARLINK-3524,PAYLOAD,2024-01-05 05:54:16,15.08852784,0.000172,53.218,295.5293,109.2603,250.8576,-1.2427e-05,-4.86e-06,0.0,0 STARLINK-3524,1 51721U 22016H   24005.24601927 -.00000486  00000-0 -12427-4 0  9999,2 51721  53.2180 295.5293 0001720 109.2603 250.8576 15.08852784104616,6917.841,95.437,540.896,538.516,0.0
51721.0,STARLINK-3524,PAYLOAD,2024-01-06 02:34:17,15.08843193,0.0001504,53.2182,291.6587,75.8689,284.2471,9.4886e-05,1.223e-05,0.0,0 STARLINK-3524,1 51721U 22016H   24006.10714625  .00001223  00000-0  94886-4 0  9992,2 51721  53.2182 291.6587 0001504  75.8689 284.2471 15.08843193104746,6917.871,95.437,540.776,538.695,0.0
51721.0,STARLINK-3524,PAYLOAD,2024-01-07 04:00:27,15.08845799,0.0001664,53.2182,286.9022,87.5806,272.5377,5.4561e-06,-2.01e-06,0.0,0 STARLINK-3524,1 51721U 22016H   24007.16698830 -.00000201  00000-0  54561-5 0  9991,2 51721  53.2182 286.9022 0001664  87.5806 272.5377 15.08845799104902,6917.863,95.437,540.879,538.577,0.0
51721.0,STARLINK-3524,PAYLOAD,2024-01-08 03:51:14,15.08844539,0.0002064,53.2188,282.4399,67.9204,292.2007,6.3174e-05,7.17e-06,0.0,0 STARLINK-3524,1 51721U 22016H   24008.16058815  .00000717  00000-0  63174-4 0  9995,2 51721  53.2188 282.4399 0002064  67.9204 292.2007 15.08844539103937,6917.867,95.437,541.159,538.304,0.0
51721.0,STARLINK-3524,PAYLOAD,2024-01-08 22:55:52,15.08840083,0.000171,53.2182,278.8704,97.2668,262.8518,2.4414e-05,1e-06,0.0,0 STARLINK-3524,1 51721U 22016H   24008.95547019  .00000100  00000-0  24414-4 0  9991,2 51721  53.2182 278.8704 0001710  97.2668 262.8518 15.08840083104051,6917.88,95.438,540.928,538.562,0.0
51721.0,STARLINK-3524,PAYLOAD,2024-01-09 00:31:15,15.08839957,0.0001641,53.2182,278.5728,86.0126,274.1053,2.2652e-05,7.2e-07,0.0,0 STARLINK-3524,1 51721U 22016H   24009.02171080  .00000072  00000-0  22652-4 0  9991,2 51721  53.2182 278.5728 0001641  86.0126 274.1053 15.08839957105185,6917.881,95.438,540.881,538.61,0.0
51721.0,STARLINK-3524,PAYLOAD,2024-01-09 18:00:30,15.0885527,0.0001623,53.2178,275.301,98.4613,261.6563,-0.00017338,-3.048e-05,0.0,0 STARLINK-3524,1 51721U 22016H   24009.75035015 -.00003048  00000-0 -17338-3 0  9990,2 51721  53.2178 275.3010 0001623  98.4613 261.6563 15.08855270104178,6917.834,95.437,540.821,538.576,0.0
51721.0,STARLINK-3524,PAYLOAD,2024-01-10 03:32:48,15.08847949,0.000168,53.2179,273.5226,110.0081,250.1092,1.9425e-05,2.1e-07,0.0,0 STARLINK-3524,1 51721U 22016H   24010.14778525  .00000021  00000-0  19425-4 0  9991,2 51721  53.2179 273.5226 0001680 110.0081 250.1092 15.08847949105356,6917.856,95.437,540.883,538.559,0.0
51721.0,STARLINK-3524,PAYLOAD,2024-01-10 17:51:17,15.0882433,0.0001612,53.2183,270.8447,81.4654,278.6521,0.00020872,3.034e-05,0.0,0 STARLINK-3524,1 51721U 22016H   24010.74395542  .00003034  00000-0  20872-3 0  9995,2 51721  53.2183 270.8447 0001612  81.4654 278.6521 15.08824330105449,6917.928,95.439,540.908,538.678,0.0
51721.0,STARLINK-3524,PAYLOAD,2024-01-11 03:23:35,15.08845206,0.000152,53.2175,269.0634,101.6791,258.4372,0.00013472,1.857e-05,0.0,0 STARLINK-3524,1 51721U 22016H   24011.14138775  .00001857  00000-0  13472-3 0  9992,2 51721  53.2175 269.0634 0001520 101.6791 258.4372 15.08845206105505,6917.864,95.437,540.781,538.678,0.0
51721.0,STARLINK-3524,PAYLOAD,2024-01-11 19:17:27,15.08837272,0.0001444,53.2162,266.089,96.2619,263.8538,-1.9448e-05,-5.97e-06,0.0,0 STARLINK-3524,1 51721U 22016H   24011.80379370 -.00000597  00000-0 -19448-4 0  9995,2 51721  53.2162 266.0890 0001444  96.2619 263.8538 15.08837272105604,6917.889,95.438,540.753,538.755,0.0
51721.0,STARLINK-3524,PAYLOAD,2024-01-11 22:28:13,15.08838484,0.0001464,53.2157,265.4945,98.6904,261.4254,-7.3949e-07,-3e-06,0.0,0 STARLINK-3524,1 51721U 22016H   24011.93627292 -.00000300  00000-0 -73949-6 0  9998,2 51721  53.2157 265.4945 0001464  98.6904 261.4254 15.08838484104500,6917.885,95.438,540.763,538.737,0.0
51721.0,STARLINK-3524,PAYLOAD,2024-01-12 01:39:00,15.0884184,0.0001515,53.216,264.8988,99.4084,260.708,6.3713e-05,7.26e-06,0.0,0 STARLINK-3524,1 51721U 22016H   24012.06875186  .00000726  00000-0  63713-4 0  9996,2 51721  53.2160 264.8988 0001515  99.4084 260.7080 15.08841840104520,6917.875,95.437,540.788,538.692,0.0
51721.0,STARLINK-3524,PAYLOAD,2024-01-12 22:18:59,15.08866857,0.0001033,53.2147,261.0346,106.7433,253.3673,-0.00084718,-0.00013755,0.0,0 STARLINK-3524,1 51721U 22016H   24012.92986086 -.00013755  00000-0 -84718-3 0  9998,2 51721  53.2147 261.0346 0001033 106.7433 253.3673 15.08866857104652,6917.798,95.436,540.378,538.949,0.0
51721.0,STARLINK-3524,PAYLOAD,2024-01-12 23:54:24,15.08838699,0.0001387,53.2151,260.7377,95.3138,264.8013,5.7222e-05,6.23e-06,0.0,0 STARLINK-3524,1 51721U 22016H   24012.99611750  .00000623  00000-0  57222-4 0  9997,2 51721  53.2151 260.7377 0001387  95.3138 264.8013 15.08838699105787,6917.884,95.438,540.709,538.79,0.0
51721.0,STARLINK-3524,PAYLOAD,2024-01-13 23:45:12,15.08838544,0.0001563,53.2161,256.279,73.2276,286.8887,0.00013468,1.856e-05,0.0,0 STARLINK-3524,1 51721U 22016H   24013.98972273  .00001856  00000-0  13468-3 0  9999,2 51721  53.2161 256.2790 0001563  73.2276 286.8887 15.08838544104816,6917.885,95.438,540.831,538.669,0.0
51721.0,STARLINK-3524,PAYLOAD,2024-01-14 22:00:35,15.08846426,0.0001613,53.2157,252.1151,76.824,283.2932,0.00018902,2.722e-05,0.0,0 STARLINK-3524,1 51721U 22016H   24014.91707973  .00002722  00000-0  18902-3 0  9997,2 51721  53.2157 252.1151 0001613  76.8240 283.2932 15.08846426104958,6917.861,95.437,540.842,538.61,0.0
51721.0,STARLINK-3524,PAYLOAD,2024-01-15 18:40:36,15.08841462,0.0001674,53.215,248.2525,76.2224,283.8954,1.8649e-05,9e-08,0.0,0 STARLINK-3524,1 51721U 22016H   24015.77820237  .00000009  00000-0  18649-4 0  9996,2 51721  53.2150 248.2525 0001674  76.2224 283.8954 15.08841462106200,6917.876,95.437,540.899,538.583,0.0
51721.0,STARLINK-3524,PAYLOAD,2024-01-15 20:15:59,15.08841158,0.000159,53.2145,247.9546,83.8276,276.2897,-4.1093e-05,-9.42e-06,0.0,0 STARLINK-3524,1 51721U 22016H   24015.84444176 -.00000942  00000-0 -41093-4 0  9995,2 51721  53.2145 247.9546 0001590  83.8276 276.2897 15.08841158105091,6917.877,95.437,540.842,538.642,0.0
51721.0,STARLINK-3524,PAYLOAD,2024-01-15 21:51:22,15.08863174,0.000132,53.2159,247.6543,85.4636,274.6507,-0.00032093,-5.395e-05,0.0,0 STARLINK-3524,1 51721U 22016H   24015.91067599 -.00005395  00000-0 -32093-3 0  9999,2 51721  53.2159 247.6543 0001320  85.4636 274.6507 15.08863174106227,6917.81,95.436,540.588,538.761,0.0
51721.0,STARLINK-3524,PAYLOAD,2024-01-16 20:06:46,15.08847199,0.0001333,53.2163,243.49,98.4889,261.6254,-2.5061e-05,-6.87e-06,0.0,0 STARLINK-3524,1 51721U 22016H   24016.83803958 -.00000687  00000-0 -25061-4 0  9995,2 51721  53.2163 243.4900 0001333  98.4889 261.6254 15.08847199106360,6917.858,95.437,540.646,538.801,0.0
51721.0,STARLINK-3524,PAYLOAD,2024-01-17 00:52:55,15.08842614,0.0001537,53.216,242.5963,107.6812,252.4349,7.3775e-05,8.86e-06,0.0,0 STARLINK-3524,1 51721U 22016H   24017.03675828  .00000886  00000-0  73775-4 0  9995,2 51721  53.2160 242.5963 0001537 107.6812 252.4349 15.08842614105270,6917.872,95.437,540.801,538.674,0.0
51721.0,STARLINK-3524,PAYLOAD,2024-01-17 19:57:33,15.08837411,0.0001593,53.2167,239.0261,113.1374,246.9787,9.2777e-05,1.189e-05,0.0,0 STARLINK-3524,1 51721U 22016H   24017.83164211  .00001189  00000-0  92777-4 0  9992,2 51721  53.2167 239.0261 0001593 113.1374 246.9787 15.08837411106517,6917.888,95.438,540.855,538.651,0.0
51721.0,STARLINK-3524,PAYLOAD,2024-01-17 21:32:56,15.08838004,0.000159,53.2168,238.7287,112.6969,247.4191,9.578e-05,1.237e-05,0.0,0 STARLINK-3524,1 51721U 22016H   24017.89788161  .00001237  00000-0  95780-4 0  9995,2 51721  53.2168 238.7287 0001590 112.6969 247.4191 15.08838004105404,6917.886,95.438,540.851,538.652,0.0
51721.0,STARLINK-3524,PAYLOAD,2024-01-18 15:02:11,15.08838134,0.000163,53.2166,235.4577,111.9967,248.1199,5.5554e-05,5.96e-06,0.0,0 STARLINK-3524,1 51721U 22016H   24018.62652411  .00000596  00000-0  55554-4 0  9997,2 51721  53.2166 235.4577 0001630 111.9967 248.1199 15.08838134105515,6917.886,95.438,540.879,538.623,0.0
51721.0,STARLINK-3524,PAYLOAD,2024-01-18 21:23:44,15.08838923,0.0001488,53.2156,234.2686,112.4338,247.6812,4.0139e-05,3.51e-06,0.0,0 STARLINK-3524,1 51721U 22016H   24018.89148395  .00000351  00000-0  40139-4 0  9999,2 51721  53.2156 234.2686 0001488 112.4338 247.6812 15.08838923105557,6917.884,95.438,540.778,538.719,0.0
